ORBCOMM FM05            
1 25117U 97084F   25221.41493418  .00001158  00000+0  36185-3 0  9990
2 25117  45.0146 112.4622 0001997  90.0674 270.0406 14.46071253448310
ORBCOMM FM06            
1 25118U 97084G   25222.18879406  .00001413  00000+0  43130-3 0  9993
2 25118  45.0139 108.4242 0001254  71.5984  69.1326 14.46213264449364
ORBCOMM FM07            
1 25119U 97084H   25222.17523184  .00001372  00000+0  41998-3 0  9996
2 25119  45.0136 109.2563 0002872  99.0163 261.1014 14.46216485449353
ORBCOMM FM03            
1 25158U 98007B   25221.53928346  .00000868  00000+0  34963-3 0  9996
2 25158 107.9676 245.2128 0044344 157.7584 202.5491 14.34602696431832
ORBCOMM FM04            
1 25159U 98007C   25221.58406034  .00000953  00000+0  37847-3 0  9996
2 25159 107.9665 248.5629 0040056 155.3068 205.0000 14.34847725431883
ORBCOMM FM17            
1 25413U 98046A   25221.44323937  .00000693  00000+0  28919-3 0  9998
2 25413  44.9957   6.2489 0003446 138.3773 221.7336 14.35175262410828
ORBCOMM FM18            
1 25414U 98046B   25221.47479208  .00000771  00000+0  29511-3 0  9991
2 25414  44.9930 282.0705 0006335 210.3036 149.7447 14.38663114411923
ORBCOMM FM19            
1 25415U 98046C   25221.52479698  .00000896  00000+0  33698-3 0  9990
2 25415  44.9942 283.9159 0005059 210.4792 287.7107 14.38474980411884
